OBJECT_NAME,OBJECT_ID,EPOCH,MEAN_MOTION,ECCENTRICITY,INCLINATION,RA_OF_ASC_NODE,ARG_OF_PERICENTER,MEAN_ANOMALY,EPHEMERIS_TYPE,CLASSIFICATION_TYPE,NORAD_CAT_ID,ELEMENT_SET_NO,REV_AT_EPOCH,BSTAR,MEAN_MOTION_DOT,MEAN_MOTION_DDOT
SAUDISAT 1C (SO-50),2002-058C,2026-06-27T04:51:48.962592,14.83066892,.00750304,64.5520,97.9980,260.6035,98.6583,0,U,27607,999,26594,.12875872E-3,.946E-5,0
SAUDISAT 2,2004-025F,2026-06-26T23:43:59.687328,14.56689109,.0023432,98.5508,178.2242,266.5457,93.3060,0,U,28371,999,16717,.66693646E-4,.249E-5,0
SAUDISAT 3,2007-012B,2026-06-27T02:51:21.108384,14.71430888,.00142929,98.1459,128.5262,190.6871,169.4034,0,U,31118,999,2920,.47865883E-4,.246E-5,0
PISAT,2016-059B,2026-06-26T22:51:46.582272,14.68999168,.0029196,97.8180,177.9858,171.3443,188.8272,0,U,41784,999,52117,.16112E-3,.903E-5,0
FLYING LAPTOP,2017-042G,2026-06-27T06:00:54.874368,15.01207479,.00199782,97.4728,333.3983,89.6560,270.6954,0,U,42831,999,48796,.23923815E-3,.3025E-4,0
SALSAT,2020-068K,2026-06-26T22:57:28.471392,15.29932421,.0007823,97.8848,181.6168,266.2984,93.7361,0,U,46495,999,31685,.28601E-3,.8212E-4,0
