SAUDISAT 1C (SO-50)     
1 27607U 02058C   26178.20265003  .00000946  00000+0  12876-3 0  9994
2 27607  64.5520  97.9980 0075030 260.6035  98.6583 14.83066892265947
SAUDISAT 2              
1 28371U 04025F   26177.98888527  .00000249  00000+0  66694-4 0  9999
2 28371  98.5508 178.2242 0023432 266.5457  93.3060 14.56689109167175
SAUDISAT 3              
1 31118U 07012B   26178.11899431  .00000246  00000+0  47866-4 0  9990
2 31118  98.1459 128.5262 0014292 190.6871 169.4034 14.71430888 29202
PISAT                   
1 41784U 16059B   26177.95262248  .00000903  00000+0  16112-3 0  9991
2 41784  97.8180 177.9858 0029196 171.3443 188.8272 14.68999168521177
FLYING LAPTOP           
1 42831U 17042G   26178.25063512  .00003025  00000+0  23924-3 0  9992
2 42831  97.4728 333.3983 0019978  89.6560 270.6954 15.01207479487960
SALSAT                  
1 46495U 20068K   26177.95657953  .00008212  00000+0  28601-3 0  9998
2 46495  97.8848 181.6168 0007823 266.2984  93.7361 15.29932421316852
